start=new Date('2023-06-21T00:00:00.000Z').valueOf();
sats=[{"MEAN_ANOMALY":"270.6300","LAUNCH_DATE":"2021-12-18","ARG_OF_PERICENTER":"89.4802","EPOCH":"2023-06-20T20:11:31.287840","MEAN_MOTION":"15.08841073","OBJECT_TYPE":"PAYLOAD","BSTAR":"-0.00002834100000","MEAN_MOTION_DOT":"-0.00000739","TIME_SYSTEM":"UTC","RA_OF_ASC_NODE":"26.1948","TLE_LINE1":"1 50166U 21125L   23171.84133435 -.00000739  00000-0 -28341-4 0  9997","FILE":"3938544","PERIOD":"95.437","COUNTRY_CODE":"US","TLE_LINE2":"2 50166  53.2162  26.1948 0000964  89.4802 270.6300 15.08841073 86705","MEAN_MOTION_DDOT":"0.0000000000000","CLASSIFICATION_TYPE":"U","DECAY_DATE":null,"ECCENTRICITY":"0.00009640","INCLINATION":"53.2162","SITE":"AFWTR","MEAN_ELEMENT_THEORY":"SGP4","RCS_SIZE":"LARGE","REV_AT_EPOCH":"8670","REF_FRAME":"TEME","OBJECT_NAME":"STARLINK-3305","CENTER_NAME":"EARTH","OBJECT_ID":"2021-125L","ELEMENT_SET_NO":"999","EPHEMERIS_TYPE":"0","APOAPSIS":"540.409","PERIAPSIS":"539.075","NORAD_CAT_ID":"50166","GP_ID":"234392125","SEMIMAJOR_AXIS":"6917.877"},{"ECCENTRICITY":"0.00009210","DECAY_DATE":null,"CLASSIFICATION_TYPE":"U","SITE":"AFWTR","INCLINATION":"53.2172","REF_FRAME":"TEME","OBJECT_NAME":"STARLINK-3271","REV_AT_EPOCH":"8657","RCS_SIZE":"LARGE","MEAN_ELEMENT_THEORY":"SGP4","NORAD_CAT_ID":"50167","GP_ID":"234391876","SEMIMAJOR_AXIS":"6917.861","PERIAPSIS":"539.088","APOAPSIS":"540.363","EPHEMERIS_TYPE":"0","ELEMENT_SET_NO":"999","OBJECT_ID":"2021-125M","CENTER_NAME":"EARTH","ARG_OF_PERICENTER":"93.1725","EPOCH":"2023-06-20T21:04:34.087584","LAUNCH_DATE":"2021-12-18","MEAN_ANOMALY":"266.9372","MEAN_MOTION_DOT":"0.00000226","TIME_SYSTEM":"UTC","BSTAR":"0.00003227200000","OBJECT_TYPE":"PAYLOAD","MEAN_MOTION":"15.08846501","TLE_LINE2":"2 50167  53.2172  36.0373 0000921  93.1725 266.9372 15.08846501 86571","COUNTRY_CODE":"US","PERIOD":"95.437","FILE":"3938544","TLE_LINE1":"1 50167U 21125M   23171.87817231  .00000226  00000-0  32272-4 0  9991","RA_OF_ASC_NODE":"36.0373","MEAN_MOTION_DDOT":"0.0000000000000"},{"MEAN_ANOMALY":"264.6025","LAUNCH_DATE":"2021-12-18","ARG_OF_PERICENTER":"95.5195","EPOCH":"2023-06-20T20:06:14.497056","MEAN_MOTION":"15.08782877","OBJECT_TYPE":"PAYLOAD","BSTAR":"0.00076226000000","MEAN_MOTION_DOT":"0.00011845","TIME_SYSTEM":"UTC","TLE_LINE1":"1 50168U 21125N   23171.83766779  .00011845  00000-0  76226-3 0  9993","RA_OF_ASC_NODE":"26.2100","FILE":"3938544","PERIOD":"95.441","COUNTRY_CODE":"US","TLE_LINE2":"2 50168  53.2160  26.2100 0001992  95.5195 264.6025 15.08782877 86715","MEAN_MOTION_DDOT":"0.0000000000000","CLASSIFICATION_TYPE":"U","DECAY_DATE":null,"ECCENTRICITY":"0.00019920","INCLINATION":"53.2160","SITE":"AFWTR","MEAN_ELEMENT_THEORY":"SGP4","RCS_SIZE":"LARGE","REV_AT_EPOCH":"8671","OBJECT_NAME":"STARLINK-3296","REF_FRAME":"TEME","CENTER_NAME":"EARTH","OBJECT_ID":"2021-125N","ELEMENT_SET_NO":"999","EPHEMERIS_TYPE":"0","APOAPSIS":"541.298","PERIAPSIS":"538.542","GP_ID":"234393126","SEMIMAJOR_AXIS":"6918.055","NORAD_CAT_ID":"50168"},{"DECAY_DATE":null,"CLASSIFICATION_TYPE":"U","ECCENTRICITY":"0.00010380","SITE":"AFWTR","INCLINATION":"53.2169","RCS_SIZE":"LARGE","MEAN_ELEMENT_THEORY":"SGP4","REF_FRAME":"TEME","OBJECT_NAME":"STARLINK-3301","REV_AT_EPOCH":"8672","EPHEMERIS_TYPE":"0","ELEMENT_SET_NO":"999","OBJECT_ID":"2021-125P","CENTER_NAME":"EARTH","GP_ID":"234393374","SEMIMAJOR_AXIS":"6917.856","NORAD_CAT_ID":"50169","PERIAPSIS":"539.003","APOAPSIS":"540.439","MEAN_ANOMALY":"257.5906","ARG_OF_PERICENTER":"102.5202","EPOCH":"2023-06-20T20:59:12.575040","LAUNCH_DATE":"2021-12-18","MEAN_MOTION":"15.08847866","TIME_SYSTEM":"UTC","MEAN_MOTION_DOT":"0.00003444","OBJECT_TYPE":"PAYLOAD","BSTAR":"0.00023428000000","FILE":"3938544","TLE_LINE1":"1 50169U 21125P   23171.87445110  .00003444  00000-0  23428-3 0  9993","RA_OF_ASC_NODE":"26.0388","TLE_LINE2":"2 50169  53.2169  26.0388 0001038 102.5202 257.5906 15.08847866 86720","COUNTRY_CODE":"US","PERIOD":"95.437","MEAN_MOTION_DDOT":"0.0000000000000"},{"CENTER_NAME":"EARTH","OBJECT_ID":"2021-125Q","ELEMENT_SET_NO":"999","EPHEMERIS_TYPE":"0","APOAPSIS":"540.337","PERIAPSIS":"539.134","GP_ID":"234391626","SEMIMAJOR_AXIS":"6917.870","NORAD_CAT_ID":"50170","MEAN_ELEMENT_THEORY":"SGP4","RCS_SIZE":"LARGE","REV_AT_EPOCH":"8670","REF_FRAME":"TEME","OBJECT_NAME":"STARLINK-3245","INCLINATION":"53.2191","SITE":"AFWTR","CLASSIFICATION_TYPE":"U","DECAY_DATE":null,"ECCENTRICITY":"0.00008700","MEAN_MOTION_DDOT":"0.0000000000000","TLE_LINE1":"1 50170U 21125Q   23171.83029319 -.00000385  00000-0 -61124-5 0  9990","RA_OF_ASC_NODE":"26.2361","FILE":"3938544","PERIOD":"95.437","COUNTRY_CODE":"US","TLE_LINE2":"2 50170  53.2191  26.2361 0000870 108.7197 251.3890 15.08843253 86702","MEAN_MOTION":"15.08843253","BSTAR":"-0.00000611240000","OBJECT_TYPE":"PAYLOAD","TIME_SYSTEM":"UTC","MEAN_MOTION_DOT":"-0.00000385","MEAN_ANOMALY":"251.3890","LAUNCH_DATE":"2021-12-18","ARG_OF_PERICENTER":"108.7197","EPOCH":"2023-06-20T19:55:37.331616"},{"LAUNCH_DATE":"2021-12-18","EPOCH":"2023-06-20T20:16:49.207872","ARG_OF_PERICENTER":"91.3635","MEAN_ANOMALY":"268.7490","OBJECT_TYPE":"PAYLOAD","BSTAR":"-0.00002386400000","MEAN_MOTION_DOT":"-0.00000668","TIME_SYSTEM":"UTC","MEAN_MOTION":"15.08842441","COUNTRY_CODE":"US","PERIOD":"95.437","TLE_LINE2":"2 50171  53.2179  26.1723 0001159  91.3635 268.7490 15.08842441 86712","FILE":"3938544","TLE_LINE1":"1 50171U 21125R   23171.84501398 -.00000668  00000-0 -23864-4 0  9996","RA_OF_ASC_NODE":"26.1723","MEAN_MOTION_DDOT":"0.0000000000000","ECCENTRICITY":"0.00011590","DECAY_DATE":null,"CLASSIFICATION_TYPE":"U","INCLINATION":"53.2179","SITE":"AFWTR","REV_AT_EPOCH":"8671","REF_FRAME":"TEME","OBJECT_NAME":"STARLINK-3286","MEAN_ELEMENT_THEORY":"SGP4","RCS_SIZE":"LARGE","PERIAPSIS":"538.936","APOAPSIS":"540.540","GP_ID":"234392376","NORAD_CAT_ID":"50171","SEMIMAJOR_AXIS":"6917.873","OBJECT_ID":"2021-125R","CENTER_NAME":"EARTH","ELEMENT_SET_NO":"999","EPHEMERIS_TYPE":"0"},{"MEAN_MOTION_DDOT":"0.0000000000000","PERIOD":"95.437","COUNTRY_CODE":"US","TLE_LINE2":"2 50172  53.2178  25.9703 0001126 110.6318 249.4795 15.08845981 86754","RA_OF_ASC_NODE":"25.9703","TLE_LINE1":"1 50172U 21125S   23171.88917049  .00000980  00000-0  79613-4 0  9993","FILE":"3938544","OBJECT_TYPE":"PAYLOAD","BSTAR":"0.00007961300000","MEAN_MOTION_DOT":"0.00000980","TIME_SYSTEM":"UTC","MEAN_MOTION":"15.08845981","LAUNCH_DATE":"2021-12-18","ARG_OF_PERICENTER":"110.6318","EPOCH":"2023-06-20T21:20:24.330336","MEAN_ANOMALY":"249.4795","APOAPSIS":"540.506","PERIAPSIS":"538.948","GP_ID":"234392627","SEMIMAJOR_AXIS":"6917.862","NORAD_CAT_ID":"50172","CENTER_NAME":"EARTH","OBJECT_ID":"2021-125S","EPHEMERIS_TYPE":"0","ELEMENT_SET_NO":"999","REV_AT_EPOCH":"8675","REF_FRAME":"TEME","OBJECT_NAME":"STARLINK-3287","MEAN_ELEMENT_THEORY":"SGP4","RCS_SIZE":"LARGE","INCLINATION":"53.2178","SITE":"AFWTR","ECCENTRICITY":"0.00011260","CLASSIFICATION_TYPE":"U","DECAY_DATE":null},{"MEAN_MOTION_DDOT":"0.0000000000000","FILE":"3938544","RA_OF_ASC_NODE":"16.1834","TLE_LINE1":"1 50173U 21125T   23171.85698102  .00000756  00000-0  65552-4 0  9995","COUNTRY_CODE":"US","PERIOD":"95.437","TLE_LINE2":"2 50173  53.2174  16.1834 0001085 100.2557 259.8558 15.08847817 86866","MEAN_MOTION":"15.08847817","BSTAR":"0.00006555200000","OBJECT_TYPE":"PAYLOAD","TIME_SYSTEM":"UTC","MEAN_MOTION_DOT":"0.00000756","MEAN_ANOMALY":"259.8558","LAUNCH_DATE":"2021-12-18","ARG_OF_PERICENTER":"100.2557","EPOCH":"2023-06-20T20:34:03.160128","OBJECT_ID":"2021-125T","CENTER_NAME":"EARTH","EPHEMERIS_TYPE":"0","ELEMENT_SET_NO":"999","PERIAPSIS":"538.971","APOAPSIS":"540.472","GP_ID":"234392875","SEMIMAJOR_AXIS":"6917.856","NORAD_CAT_ID":"50173","MEAN_ELEMENT_THEORY":"SGP4","RCS_SIZE":"LARGE","REV_AT_EPOCH":"8686","OBJECT_NAME":"STARLINK-3289","REF_FRAME":"TEME","INCLINATION":"53.2174","SITE":"AFWTR","DECAY_DATE":null,"CLASSIFICATION_TYPE":"U","ECCENTRICITY":"0.00010850"},{"BSTAR":"0.00025783000000","OBJECT_TYPE":"PAYLOAD","MEAN_MOTION_DOT":"0.00003819","TIME_SYSTEM":"UTC","MEAN_MOTION":"15.08852005","LAUNCH_DATE":"2021-12-18","ARG_OF_PERICENTER":"84.9153","EPOCH":"2023-06-20T21:04:30.615168","MEAN_ANOMALY":"275.1952","MEAN_MOTION_DDOT":"0.0000000000000","COUNTRY_CODE":"US","PERIOD":"95.437","TLE_LINE2":"2 50174  53.2173  26.0228 0000991  84.9153 275.1952 15.08852005 86761","FILE":"3938544","TLE_LINE1":"1 50174U 21125U   23171.87813212  .00003819  00000-0  25783-3 0  9993","RA_OF_ASC_NODE":"26.0228","INCLINATION":"53.2173","SITE":"AFWTR","ECCENTRICITY":"0.00009910","DECAY_DATE":null,"CLASSIFICATION_TYPE":"U","PERIAPSIS":"539.023","APOAPSIS":"540.394","NORAD_CAT_ID":"50174","GP_ID":"234392126","SEMIMAJOR_AXIS":"6917.844","OBJECT_ID":"2021-125U","CENTER_NAME":"EARTH","EPHEMERIS_TYPE":"0","ELEMENT_SET_NO":"999","REV_AT_EPOCH":"8676","OBJECT_NAME":"STARLINK-3292","REF_FRAME":"TEME","MEAN_ELEMENT_THEORY":"SGP4","RCS_SIZE":"LARGE"},{"INCLINATION":"53.2177","SITE":"AFWTR","ECCENTRICITY":"0.00011170","CLASSIFICATION_TYPE":"U","DECAY_DATE":null,"APOAPSIS":"540.496","PERIAPSIS":"538.951","NORAD_CAT_ID":"50175","GP_ID":"234391877","SEMIMAJOR_AXIS":"6917.859","CENTER_NAME":"EARTH","OBJECT_ID":"2021-125V","ELEMENT_SET_NO":"999","EPHEMERIS_TYPE":"0","REV_AT_EPOCH":"8671","REF_FRAME":"TEME","OBJECT_NAME":"STARLINK-3291","MEAN_ELEMENT_THEORY":"SGP4","RCS_SIZE":"LARGE","BSTAR":"0.00010831000000","OBJECT_TYPE":"PAYLOAD","MEAN_MOTION_DOT":"0.00001437","TIME_SYSTEM":"UTC","MEAN_MOTION":"15.08847077","LAUNCH_DATE":"2021-12-18","ARG_OF_PERICENTER":"98.2184","EPOCH":"2023-06-20T20:00:55.089216","MEAN_ANOMALY":"261.8935","MEAN_MOTION_DDOT":"0.0000000000000","PERIOD":"95.437","COUNTRY_CODE":"US","TLE_LINE2":"2 50175  53.2177  26.2215 0001117  98.2184 261.8935 15.08847077 86718","RA_OF_ASC_NODE":"26.2215","TLE_LINE1":"1 50175U 21125V   23171.83397094  .00001437  00000-0  10831-3 0  9997","FILE":"3938544"}];
